SARSAT 7 (NOAA 15)      
1 25338U 98030A   25065.72911952  .00000285  00000+0  13513-3 0  9995
2 25338  98.5463  93.0989 0009127 277.2233  82.7910 14.26901313394622
GPS BIIR-08             
1 27663U 03005A   25065.45115245  .00000059  00000+0  00000+0 0  9999
2 27663  55.0085 233.5578 0143534  49.7762 320.5805  2.00559852161936
GPS BIIR-11             
1 28190U 04009A   25063.47683919 -.00000020  00000+0  00000+0 0  9997
2 28190  55.2272 294.6152 0101225 157.0352  22.5201  2.00570313153527
GPS BIIR-13             
1 28474U 04045A   25064.64755485 -.00000098  00000+0  00000+0 0  9995
2 28474  55.3593 343.7348 0164237 300.8074  57.1622  2.00657176149027
SARSAT 10 (NOAA 18)     
1 28654U 05018A   25065.70351979  .00000295  00000+0  18001-3 0  9996
2 28654  98.8478 146.2347 0014656  42.7175 317.5134 14.13533794 20260
GPS BIIR-14M            
1 28874U 05038A   25065.41994803 -.00000011  00000+0  00000+0 0  9992
2 28874  55.2704 292.0070 0133711 289.4345 239.5630  2.00567468142457
METEOSAT-9 (MSG-2)      
1 28912U 05049B   25065.58983528  .00000115  00000+0  00000+0 0  9991
2 28912   8.2930  58.5733 0000615 334.5167  29.5348  1.00276775  2321
GOES 13                 
1 29155U 06018A   25065.73706294 -.00000118  00000+0  00000+0 0  9992
2 29155   3.3133  82.1260 0066003 261.5443 101.7377  0.98831845 38638
GPS BIIR-16M            
1 29601U 06052A   25064.75305357  .00000062  00000+0  00000+0 0  9999
2 29601  55.0478 232.5830 0087858  84.9424 276.0358  2.00556531134016
GPS BIIR-17M            
1 32260U 07047A   25065.06210454 -.00000012  00000+0  00000+0 0  9993
2 32260  53.7602  99.4011 0158950  79.9050 281.9452  2.00551902127421
GPS BIIR-18M            
1 32384U 07062A   25065.12324963 -.00000014  00000+0  00000+0 0  9997
2 32384  55.4158 292.9218 0029312 153.4463  19.8971  2.00561600126123
SARSAT 12 (NOAA 19)     
1 33591U 09005A   25065.69443689  .00000254  00000+0  15965-3 0  9991
2 33591  99.0092 129.8260 0012775 271.2345  88.7364 14.13301768828442
GOES 14                 
1 35491U 09033A   25065.37134437 -.00000078  00000+0  00000+0 0  9991
2 35491   0.4679  89.6066 0001269 175.1500 285.2430  1.00268369  1901
GOES 15                 
1 36411U 10008A   25065.77455295  .00000028  00000+0  00000+0 0  9994
2 36411   0.0695  93.6898 0004080 187.5434 223.6365  1.00269954 54950
GSAT0101 (GALILEO-PFM)  
1 37846U 11060A   25060.06079426 -.00000084  00000+0  00000+0 0  9994
2 37846  57.1140 354.5841 0004142 343.0067  16.9840  1.70475553 83187
GSAT0102 (GALILEO-FM2)  
1 37847U 11060B   25062.52667051 -.00000092  00000+0  00000+0 0  9994
2 37847  57.1119 354.5177 0005351 337.7414 140.9033  1.70475674 83103
LUCH 5A                 
1 37951U 11074B   25065.48128731 -.00000060  00000+0  00000+0 0  9995
2 37951   7.5595  80.8361 0002748 244.0670 179.6623  1.00270920 48364
METEOSAT-10 (MSG-3)     
1 38552U 12035B   25064.31433586 -.00000014  00000+0  00000+0 0  9998
2 38552   3.5638  62.0289 0001834 246.9242 327.4591  1.00272199 46150
SARSAT 13 (METOP-B)     
1 38771U 12049A   25065.72386992  .00000179  00000+0  10146-3 0  9997
2 38771  98.5910 122.5536 0000369 114.0225 246.0991 14.21445697646850
GPS BIIF-3              
1 38833U 12053A   25064.65695266 -.00000007  00000+0  00000+0 0  9994
2 38833  53.5282 162.7814 0163204  59.8680 301.7567  2.00561600 90045
GSAT0103 (GALILEO-FM3)  
1 38857U 12055A   25062.44687721  .00000017  00000+0  00000+0 0  9994
2 38857  55.5298 114.4762 0005587 273.9785  86.0408  1.70473409 76989
GPS BIIF-4              
1 39166U 13023A   25065.01802577 -.00000004  00000+0  00000+0 0  9995
2 39166  54.8856 288.0001 0132663  46.7119 314.4302  2.00561744 86494
INSAT-3D                
1 39216U 13038B   25064.58586484 -.00000348  00000+0  00000+0 0  9995
2 39216   0.7121  89.0551 0002049 218.9505 195.8859  1.00266090 42383
GPS BIIF-5              
1 39533U 14008A   25065.01725748 -.00000008  00000+0  00000+0 0  9995
2 39533  53.6078 168.4051 0076302 222.7333 136.6800  2.00557138 80293
LUCH 5V                 
1 39727U 14023A   25064.94080435 -.00000277  00000+0  00000+0 0  9993
2 39727   3.9607  74.0873 0002776 270.5518 252.6301  1.00275118557814
GPS BIIF-6              
1 39741U 14026A   25065.30254319 -.00000102  00000+0  00000+0 0  9994
2 39741  56.6723 349.7068 0036121 319.3852  40.3619  2.00549727 79157
GPS BIIF-7              
1 40105U 14045A   25064.88421244 -.00000010  00000+0  00000+0 0  9994
2 40105  55.0588 107.1487 0028270 118.4008 241.9483  2.00554043 76683
GSAT0201 (GALILEO 5)    
1 40128U 14050A   25064.49788116 -.00000030  00000+0  00000+0 0  9998
2 40128  49.3828 292.5240 1621627 161.2854 205.4602  1.85519644 69622
GSAT0202 (GALILEO 6)    
1 40129U 14050B   25063.13820621 -.00000029  00000+0  00000+0 0  9995
2 40129  49.4001 291.6595 1621178 162.0162 204.4770  1.85520354 71765
GPS BIIF-8              
1 40294U 14068A   25065.25570188 -.00000037  00000+0  00000+0 0  9991
2 40294  56.6430  49.0399 0056133  63.5984 296.9787  2.00576450 75821
GLONASS-K 2             
1 40315U 14075A   25064.97983004  .00000050  00000+0  00000+0 0  9990
2 40315  63.6181 206.5854 0019745 205.1046 154.7740  2.13101255 79873
GPS BIIF-9              
1 40534U 15013A   25065.39663595  .00000049  00000+0  00000+0 0  9991
2 40534  53.2651 223.5327 0097628  34.5207 326.0770  2.00549437 72443
GSAT0203 (GALILEO 7)    
1 40544U 15017A   25061.01276257 -.00000087  00000+0  00000+0 0  9999
2 40544  56.9059 354.4574 0004661 291.9904  67.9666  1.70475386 61150
GSAT0204 (GALILEO 8)    
1 40545U 15017B   25061.26755611 -.00000087  00000+0  00000+0 0  9993
2 40545  56.9122 354.4670 0004226 281.5481  78.4114  1.70475279 24202
GPS BIIF-10             
1 40730U 15033A   25065.05845024 -.00000001  00000+0  00000+0 0  9992
2 40730  54.3661 286.3425 0104319  23.6636 336.8541  2.00553398 70603
METEOSAT-11 (MSG-4)     
1 40732U 15034A   25064.30878093  .00000055  00000+0  00000+0 0  9992
2 40732   2.0281  72.1584 0000804 294.1901 277.4977  1.00265383  2515
GSAT0205 (GALILEO 9)    
1 40889U 15045A   25063.38232075  .00000048  00000+0  00000+0 0  9990
2 40889  55.1094 234.5790 0006082  48.2833 311.7306  1.70473573 59001
GSAT0206 (GALILEO 10)   
1 40890U 15045B   25061.25659733  .00000048  00000+0  00000+0 0  9990
2 40890  55.1092 234.6329 0003940  50.8725 309.1223  1.70473511 58997
GPS BIIF-11             
1 41019U 15062A   25065.11492290 -.00000037  00000+0  00000+0 0  9994
2 41019  56.6206  48.9012 0103023 228.4981 130.6164  2.00566591 68446
ELEKTRO-L 2             
1 41105U 15074A   25064.53566769 -.00000124  00000+0  00000+0 0  9998
2 41105   5.5079  76.2855 0003290 221.2707  44.2497  1.00271954 33800
GSAT0209 (GALILEO 12)   
1 41174U 15079A   25064.35833657  .00000002  00000+0  00000+0 0  9996
2 41174  55.5506 114.1351 0004547 313.2630  46.7709  1.70474482 56785
GSAT0208 (GALILEO 11)   
1 41175U 15079B   25065.75142482 -.00000003  00000+0  00000+0 0  9993
2 41175  55.5499 114.0940 0004025 311.3909  48.6423  1.70474508 57222
GPS BIIF-12             
1 41328U 16007A   25065.20128139 -.00000011  00000+0  00000+0 0  9997
2 41328  55.2456 108.0366 0086780 241.3130 117.8741  2.00574531 66451
GSAT0211 (GALILEO 14)   
1 41549U 16030A   25060.00918620  .00000051  00000+0  00000+0 0  9996
2 41549  55.2585 234.7065 0003585  25.6327 334.3490  1.70473594 54609
GSAT0210 (GALILEO 13)   
1 41550U 16030B   25065.54624558  .00000045  00000+0  00000+0 0  9999
2 41550  55.2560 234.5521 0001240 172.7429 187.2261  1.70473770 54698
INSAT-3DR               
1 41752U 16054A   25065.71974583 -.00000088  00000+0  00000+0 0  9992
2 41752   0.0261 107.8662 0012746 173.1923 216.7188  1.00271819 31136
GSAT0207 (GALILEO 15)   
1 41859U 16069A   25065.23836600 -.00000003  00000+0  00000+0 0  9997
2 41859  55.2181 114.0483 0005140 299.1841  60.8330  1.70474507 51647
GSAT0212 (GALILEO 16)   
1 41860U 16069B   25059.22658973  .00000030  00000+0  00000+0 0  9995
2 41860  55.2123 114.2113 0003131 323.0873  36.9851  1.70474740 51570
GSAT0213 (GALILEO 17)   
1 41861U 16069C   25061.35446799  .00000024  00000+0  00000+0 0  9997
2 41861  55.2157 114.1594 0005152 281.5446  78.4869  1.70474972 51475
GSAT0214 (GALILEO 18)   
1 41862U 16069D   25062.67312728  .00000014  00000+0  00000+0 0  9997
2 41862  55.2155 114.1157 0004459 281.2806  78.7508  1.70474829 51626
GOES 16                 
1 41866U 16071A   25064.52961274 -.00000255  00000+0  00000+0 0  9994
2 41866   0.0850 286.8195 0001772  71.8195 280.2937  1.00269200 30405
GSAT-17                 
1 42815U 17040B   25064.93980197 -.00000266  00000+0  00000+0 0  9998
2 42815   0.0402 273.2834 0004625   9.4516 312.9823  1.00270255 28098
GSAT0215 (GALILEO 19)   
1 43055U 17079A   25061.99003185  .00000048  00000+0  00000+0 0  9990
2 43055  55.2364 234.4701 0000667  39.0811 320.8831  1.70474269 44953
GSAT0216 (GALILEO 20)   
1 43056U 17079B   25062.86811080  .00000048  00000+0  00000+0 0  9999
2 43056  55.2356 234.4459 0001498 321.7487  38.2012  1.70474418 44955
GSAT0217 (GALILEO 21)   
1 43057U 17079C   25062.50210937  .00000048  00000+0  00000+0 0  9995
2 43057  55.2333 234.4543 0001934 358.5382   1.4211  1.70474342 44962
GSAT0218 (GALILEO 22)   
1 43058U 17079D   25062.72215273  .00000048  00000+0  00000+0 0  9998
2 43058  55.2337 234.4456 0001731 304.4632  55.4807  1.70474331 44994
GOES 17                 
1 43226U 18022A   25064.43308620 -.00000099  00000+0  00000+0 0  9990
2 43226   0.0168 321.2677 0001141 115.5724 138.0586  1.00271617 25726
GSAT0221 (GALILEO 25)   
1 43564U 18060A   25062.03718543 -.00000090  00000+0  00000+0 0  9991
2 43564  57.2862 354.4951 0005577 303.4422  56.5121  1.70475213 41147
GSAT0222 (GALILEO 26)   
1 43565U 18060B   25065.18902751 -.00000103  00000+0  00000+0 0  9992
2 43565  57.2891 354.4126 0003955 284.9193  75.0424  1.70474985 41237
GSAT0219 (GALILEO 23)   
1 43566U 18060C   25060.13123374 -.00000084  00000+0  00000+0 0  9997
2 43566  57.2893 354.5507 0005051 310.5119  49.4489  1.70475233 41128
